CCSDS_OMM_VERS,COMMENT,CREATION_DATE,ORIGINATOR,OBJECT_NAME,OBJECT_ID,CENTER_NAME,REF_FRAME,TIME_SYSTEM,MEAN_ELEMENT_THEORY,EPOCH,MEAN_MOTION,ECCENTRICITY,INCLINATION,RA_OF_ASC_NODE,ARG_OF_PERICENTER,MEAN_ANOMALY,EPHEMERIS_TYPE,CLASSIFICATION_TYPE,NORAD_CAT_ID,ELEMENT_SET_NO,REV_AT_EPOCH,BSTAR,MEAN_MOTION_DOT,MEAN_MOTION_DDOT,SEMIMAJOR_AXIS,PERIOD,APOAPSIS,PERIAPSIS,OBJECT_TYPE,RCS_SIZE,COUNTRY_CODE,LAUNCH_DATE,SITE,DECAY_DATE,FILE,GP_ID,TLE_LINE0,TLE_LINE1,TLE_LINE2
2,GENERATED VIA SPACE-TRACK.ORG API,2020-04-10T22:26:10,18 SPCS,GALILEO-FM3,2012-055A,EARTH,TEME,UTC,SGP4,2020-04-09T22:48:55.360800,1.70473675,0.0004356,54.9654,163.6662,263.7884,96.2483,0,U,38857,999,4664,0.0,2.4e-07,0,29600.357,844.705,23235.116,23209.328,PAYLOAD,LARGE,ESA,2012-10-12,FRGUI,,2731959,151974322,0 GALILEO-FM3,1 38857U 12055A   20100.95064075  .00000024  00000-0  00000+0 0  9998,2 38857  54.9654 163.6662 0004356 263.7884  96.2483  1.70473675 46644
2,GENERATED VIA SPACE-TRACK.ORG API,2020-04-13T18:24:00,18 SPCS,GALILEO-FM3,2012-055A,EARTH,TEME,UTC,SGP4,2020-04-12T07:07:37.090848,1.70473727,0.0004419,54.9657,163.6014,263.9846,96.0408,0,U,38857,999,4668,0.0,7e-08,0,29600.351,844.704,23235.297,23209.136,PAYLOAD,LARGE,ESA,2012-10-12,FRGUI,,2733371,152120520,0 GALILEO-FM3,1 38857U 12055A   20103.29695707 +.00000007 +00000-0 +00000-0 0  9992,2 38857 054.9657 163.6014 0004419 263.9846 096.0408 01.70473727046685
2,GENERATED VIA SPACE-TRACK.ORG API,2020-04-12T16:51:55,18 SPCS,GALILEO-FM3,2012-055A,EARTH,TEME,UTC,SGP4,2020-04-12T07:07:37.131456,1.70473713,0.0004401,54.9657,163.6014,263.9335,96.0921,0,U,38857,999,4668,0.0,7e-08,0,29600.353,844.705,23235.245,23209.191,PAYLOAD,LARGE,ESA,2012-10-12,FRGUI,,2732976,152071681,0 GALILEO-FM3,1 38857U 12055A   20103.29695754 +.00000007 +00000-0 +00000-0 0  9994,2 38857 054.9657 163.6014 0004401 263.9335 096.0921 01.70473713046684
2,GENERATED VIA SPACE-TRACK.ORG API,2020-04-14T20:26:31,18 SPCS,GALILEO-FM3,2012-055A,EARTH,TEME,UTC,SGP4,2020-04-14T01:21:38.562912,1.7047376,0.0004458,54.966,163.5529,264.1189,95.8993,0,U,38857,999,4671,0.0,0.0,0,29600.347,844.704,23235.408,23209.017,PAYLOAD,LARGE,ESA,2012-10-12,FRGUI,,2734003,152173772,0 GALILEO-FM3,1 38857U 12055A   20105.05669633 -.00000000 +00000-0 +00000-0 0  9991,2 38857 054.9660 163.5529 0004458 264.1189 095.8993 01.70473760046712
2,GENERATED VIA SPACE-TRACK.ORG API,2020-04-16T23:16:09,18 SPCS,GALILEO-FM3,2012-055A,EARTH,TEME,UTC,SGP4,2020-04-15T19:35:40.885152,1.70473807,0.0004516,54.9664,163.5045,264.3043,95.7127,0,U,38857,999,4674,0.0,5e-08,0,29600.342,844.704,23235.574,23208.839,PAYLOAD,LARGE,ESA,2012-10-12,FRGUI,,2735135,152304305,0 GALILEO-FM3,1 38857U 12055A   20106.81644543  .00000005  00000-0  00000+0 0  9992,2 38857  54.9664 163.5045 0004516 264.3043  95.7127  1.70473807 46748
2,GENERATED VIA SPACE-TRACK.ORG API,2020-04-18T14:26:09,18 SPCS,GALILEO-FM3,2012-055A,EARTH,TEME,UTC,SGP4,2020-04-18T03:54:25.411968,1.70473865,0.0004585,54.9668,163.4399,264.5785,95.4473,0,U,38857,999,4678,0.0,2.3e-07,0,29600.335,844.704,23235.772,23208.628,PAYLOAD,LARGE,ESA,2012-10-12,FRGUI,,2735884,152380786,0 GALILEO-FM3,1 38857U 12055A   20109.16279412  .00000023  00000-0  00000+0 0  9992,2 38857  54.9668 163.4399 0004585 264.5785  95.4473  1.70473865 46783
2,GENERATED VIA SPACE-TRACK.ORG API,2020-04-19T01:32:21,18 SPCS,GALILEO-FM3,2012-055A,EARTH,TEME,UTC,SGP4,2020-04-18T17:59:06.670464,1.70473877,0.0004596,54.9669,163.4237,264.6236,95.4056,0,U,38857,999,4679,0.0,2.8e-07,0,29600.334,844.704,23235.803,23208.594,PAYLOAD,LARGE,ESA,2012-10-12,FRGUI,,2736159,152422140,0 GALILEO-FM3,1 38857U 12055A   20109.74938276 +.00000028 +00000-0 +00000-0 0  9992,2 38857 054.9669 163.4237 0004596 264.6236 095.4056 01.70473877046790
2,GENERATED VIA SPACE-TRACK.ORG API,2020-04-21T01:56:12,18 SPCS,GALILEO-FM3,2012-055A,EARTH,TEME,UTC,SGP4,2020-04-19T22:08:29.227200,1.70473891,0.0004641,54.967,163.3915,264.996,95.0394,0,U,38857,999,4682,0.0,3.8e-07,0,29600.332,844.704,23235.935,23208.46,PAYLOAD,LARGE,ESA,2012-10-12,FRGUI,,2736941,152519989,0 GALILEO-FM3,1 38857U 12055A   20110.92256050 +.00000038 +00000-0 +00000-0 0  9998,2 38857 054.9670 163.3915 0004641 264.9960 095.0394 01.70473891046823
2,GENERATED VIA SPACE-TRACK.ORG API,2020-04-23T01:22:27,18 SPCS,GALILEO-FM3,2012-055A,EARTH,TEME,UTC,SGP4,2020-04-22T06:27:13.736736,1.70473873,0.0004702,54.9675,163.3269,265.3053,94.739,0,U,38857,999,4685,0.0,5.4e-07,0,29600.334,844.704,23236.117,23208.281,PAYLOAD,LARGE,ESA,2012-10-12,FRGUI,,2737866,152660789,0 GALILEO-FM3,1 38857U 12055A   20113.26890899 +.00000054 +00000-0 +00000-0 0  9991,2 38857 054.9675 163.3269 0004702 265.3053 094.7390 01.70473873046851
2,GENERATED VIA SPACE-TRACK.ORG API,2020-04-23T06:26:09,18 SPCS,GALILEO-FM3,2012-055A,EARTH,TEME,UTC,SGP4,2020-04-22T06:27:13.736736,1.70473873,0.0004702,54.9675,163.3269,265.3053,94.739,0,U,38857,999,4685,0.0,5.4e-07,0,29600.334,844.704,23236.117,23208.281,PAYLOAD,LARGE,ESA,2012-10-12,FRGUI,,2737898,152666712,0 GALILEO-FM3,1 38857U 12055A   20113.26890899  .00000054  00000-0  00000+0 0  9990,2 38857  54.9675 163.3269 0004702 265.3053  94.7390  1.70473873 46851
2,GENERATED VIA SPACE-TRACK.ORG API,2020-04-24T00:11:50,18 SPCS,GALILEO-FM3,2012-055A,EARTH,TEME,UTC,SGP4,2020-04-23T10:36:35.481312,1.70473863,0.0004722,54.9677,163.2946,265.4453,94.5998,0,U,38857,999,4687,0.0,6e-07,0,29600.335,844.704,23236.178,23208.223,PAYLOAD,LARGE,ESA,2012-10-12,FRGUI,,2738420,152713856,0 GALILEO-FM3,1 38857U 12055A   20114.44207733 +.00000060 +00000-0 +00000-0 0  9998,2 38857 054.9677 163.2946 0004722 265.4453 094.5998 01.70473863046874
2,GENERATED VIA SPACE-TRACK.ORG API,2020-04-25T14:36:09,18 SPCS,GALILEO-FM3,2012-055A,EARTH,TEME,UTC,SGP4,2020-04-24T14:45:56.808576,1.70473825,0.0004772,54.9679,163.2624,265.8213,94.2214,0,U,38857,999,4689,0.0,6.4e-07,0,29600.34,844.704,23236.33,23208.08,PAYLOAD,LARGE,ESA,2012-10-12,FRGUI,,2739204,152836383,0 GALILEO-FM3,1 38857U 12055A   20115.61524084  .00000064  00000-0  00000+0 0  9992,2 38857  54.9679 163.2624 0004772 265.8213  94.2214  1.70473825 46890
2,GENERATED VIA SPACE-TRACK.ORG API,2020-04-26T16:55:34,18 SPCS,GALILEO-FM3,2012-055A,EARTH,TEME,UTC,SGP4,2020-04-26T08:59:58.245216,1.704738,0.0004791,54.9681,163.2139,265.986,94.0497,0,U,38857,999,4692,0.0,6.5e-07,0,29600.343,844.704,23236.389,23208.026,PAYLOAD,LARGE,ESA,2012-10-12,FRGUI,,2739807,152905694,0 GALILEO-FM3,1 38857U 12055A   20117.37497969 +.00000065 +00000-0 +00000-0 0  9990,2 38857 054.9681 163.2139 0004791 265.9860 094.0497 01.70473800046922
2,GENERATED VIA SPACE-TRACK.ORG API,2020-04-28T14:26:09,18 SPCS,GALILEO-FM3,2012-055A,EARTH,TEME,UTC,SGP4,2020-04-28T03:13:59.453760,1.70473757,0.0004827,54.9685,163.1655,266.3432,93.6834,0,U,38857,999,4695,0.0,6.2e-07,0,29600.348,844.704,23236.501,23207.925,PAYLOAD,LARGE,ESA,2012-10-12,FRGUI,,2740632,153028799,0 GALILEO-FM3,1 38857U 12055A   20119.13471590  .00000062  00000-0  00000+0 0  9994,2 38857  54.9685 163.1655 0004827 266.3432  93.6834  1.70473757 46952
2,GENERATED VIA SPACE-TRACK.ORG API,2020-04-30T04:00:12,18 SPCS,GALILEO-FM3,2012-055A,EARTH,TEME,UTC,SGP4,2020-04-29T07:23:20.499360,1.70473738,0.0004836,54.9683,163.1332,266.5732,93.4492,0,U,38857,999,4697,0.0,6.1e-07,0,29600.35,844.704,23236.53,23207.9,PAYLOAD,LARGE,ESA,2012-10-12,FRGUI,,2741555,153122911,0 GALILEO-FM3,1 38857U 12055A   20120.30787615 +.00000061 +00000-0 +00000-0 0  9993,2 38857 054.9683 163.1332 0004836 266.5732 093.4492 01.70473738046976
2,GENERATED VIA SPACE-TRACK.ORG API,2020-04-30T23:56:09,18 SPCS,GALILEO-FM3,2012-055A,EARTH,TEME,UTC,SGP4,2020-04-30T11:32:41.937216,1.7047372,0.0004852,54.9685,163.1009,266.7439,93.2771,0,U,38857,999,4699,0.0,6e-07,0,29600.352,844.704,23236.579,23207.855,PAYLOAD,LARGE,ESA,2012-10-12,FRGUI,,2741925,153156813,0 GALILEO-FM3,1 38857U 12055A   20121.48104094  .00000060  00000-0  00000+0 0  9995,2 38857  54.9685 163.1009 0004852 266.7439  93.2771  1.70473720 46994
2,GENERATED VIA SPACE-TRACK.ORG API,2020-05-03T02:42:16,18 SPCS,GALILEO-FM3,2012-055A,EARTH,TEME,UTC,SGP4,2020-05-02T19:51:25.979328,1.7047369,0.0004905,54.9691,163.0362,267.033,92.9929,0,U,38857,999,4703,0.0,6.7e-07,0,29600.355,844.705,23236.739,23207.701,PAYLOAD,LARGE,ESA,2012-10-12,FRGUI,,2743112,153279118,0 GALILEO-FM3,1 38857U 12055A   20123.82738402 +.00000067 +00000-0 +00000-0 0  9999,2 38857 054.9691 163.0362 0004905 267.0330 092.9929 01.70473690047038
2,GENERATED VIA SPACE-TRACK.ORG API,2020-05-03T06:36:09,18 SPCS,GALILEO-FM3,2012-055A,EARTH,TEME,UTC,SGP4,2020-05-02T19:51:25.979328,1.7047369,0.0004905,54.9691,163.0362,267.033,92.9929,0,U,38857,999,4703,0.0,6.7e-07,0,29600.355,844.705,23236.739,23207.701,PAYLOAD,LARGE,ESA,2012-10-12,FRGUI,,2743162,153285575,0 GALILEO-FM3,1 38857U 12055A   20123.82738402  .00000067  00000-0  00000+0 0  9998,2 38857  54.9691 163.0362 0004905 267.0330  92.9929  1.70473690 47038
2,GENERATED VIA SPACE-TRACK.ORG API,2020-05-04T03:08:21,18 SPCS,GALILEO-FM3,2012-055A,EARTH,TEME,UTC,SGP4,2020-05-03T09:56:07.090944,1.70473687,0.0004925,54.9694,163.0201,267.052,92.9759,0,U,38857,999,4704,0.0,6.9e-07,0,29600.356,844.705,23236.799,23207.643,PAYLOAD,LARGE,ESA,2012-10-12,FRGUI,,2743596,153330272,0 GALILEO-FM3,1 38857U 12055A   20124.41397096 +.00000069 +00000-0 +00000-0 0  9997,2 38857 054.9694 163.0201 0004925 267.0520 092.9759 01.70473687047044
2,GENERATED VIA SPACE-TRACK.ORG API,2020-05-05T16:16:05,18 SPCS,GALILEO-FM3,2012-055A,EARTH,TEME,UTC,SGP4,2020-05-05T04:10:10.134624,1.70473688,0.0004964,54.9699,162.9716,267.2394,92.7924,0,U,38857,999,4707,0.0,7.3e-07,0,29600.356,844.705,23236.914,23207.527,PAYLOAD,LARGE,ESA,2012-10-12,FRGUI,,2744523,153411625,0 GALILEO-FM3,1 38857U 12055A   20126.17372841 +.00000073 +00000-0 +00000-0 0  9998,2 38857 054.9699 162.9716 0004964 267.2394 092.7924 01.70473688047078
